{"fetched_at":"2026-03-29T16:36:15Z","count":15609,"tles":[{"name":"STARLINK-31720","line1":"1 59497U 24071P   26087.73961380 -.00001592  00000+0 -48281-4 0  9993","line2":"2 59497  43.0015 232.6282 0001372 260.2478  99.8219 15.27609147111111","category":"Starlink"}]}