{
  "norad_id": 59497,
  "name": "STARLINK-31720",
  "history": [
    {
      "epoch": "2026-03-28T17:45:02.632320Z",
      "apogee_km": 483.90350663694426,
      "perigee_km": 482.0201350106272,
      "latitude_deg": 2.3530235113556885e-05,
      "longitude_deg": 140.21152460202146,
      "height_km": 482.89813226089353,
      "semi_major_axis_km": 6861.098820823785,
      "eccentricity": 0.00013725,
      "inclination_deg": 43.0015,
      "raan_deg": 232.6282,
      "arg_perigee_deg": 260.2478,
      "mean_anomaly_deg": 99.8219,
      "mean_motion_rev_day": 15.27609147
    }
  ]
}